DUBAISAT-2              
1 39419U 13066D   25104.15126903  .00008412  00000+0  58353-3 0  9992
2 39419  97.4320 102.7208 0013879  67.8166 292.4532 15.05756800621738
GPM-CORE                
1 39574U 14009C   25103.92339930  .00013469  00000+0  29040-3 0  9991
2 39574  64.9770 306.0503 0009746 256.1151 103.8906 15.44798207631506
SENTINEL-1A             
1 39634U 14016A   25104.17907878  .00000640  00000+0  14550-3 0  9993
2 39634  98.1818 112.9273 0001388  90.4990 269.6368 14.59199042587484
KAZEOSAT 1              
1 39731U 14024A   25104.14540696  .00000520  00000+0  17166-3 0  9991
2 39731  98.3611 181.1757 0001252  89.9593 270.1740 14.42012465576778
ALOS-2                  
1 39766U 14029A   25104.21163381  .00004146  00000+0  56159-3 0  9997
2 39766  97.9199 202.5325 0001625 100.7098 259.4297 14.79477468588180
KAZEOSAT 2              
1 40010U 14033A   25104.16288289  .00001324  00000+0  16338-3 0  9995
2 40010  97.5812 320.6915 0007592 298.9669  61.0785 14.84422786585299
HODOYOSHI-4             
1 40011U 14033B   25104.15202240  .00002864  00000+0  32798-3 0  9996
2 40011  97.5568 304.9899 0022827 287.5689  72.3033 14.86518878585042
DEIMOS-2                
1 40013U 14033D   25104.18892530  .00003249  00000+0  32769-3 0  9994
2 40013  97.6417 347.7360 0001196  58.7806 301.3531 14.91774542586598
HODOYOSHI-3             
1 40015U 14033F   25103.85734152  .00003070  00000+0  37360-3 0  9998
2 40015  97.6062 280.6989 0032966 329.9389  29.9933 14.83755636583923
SPOT 7                  
1 40053U 14034A   25104.15265526  .00001140  00000+0  24522-3 0  9991
2 40053  98.1159 171.4380 0001583 101.3946 258.7433 14.60369715574529
SKYSAT-B                
1 40072U 14037D   25103.86277386  .00002877  00000+0  33344-3 0  9999
2 40072  98.3403  35.3960 0004708 218.8387 141.2490 14.86312045582150
WORLDVIEW-3 (WV-3)      
1 40115U 14048A   25104.16649536  .00002352  00000+0  28172-3 0  9994
2 40115  97.8606 179.3889 0003995 303.8869  56.1965 14.85041744578265
GAOFEN-2                
1 40118U 14049A   25104.16440801  .00002385  00000+0  31798-3 0  9996
2 40118  98.0650 162.4942 0006157 153.2732 206.8798 14.80575436575767
YAOGAN-21               
1 40143U 14053A   25104.22385411  .00013789  00000+0  57691-3 0  9991
2 40143  97.2053 157.4840 0014672 214.1636 145.8659 15.23587093589656
YAOGAN-22               
1 40275U 14063A   25103.79792556  .00000004  00000+0  13292-3 0  9996
2 40275 100.7055 244.2087 0006886  79.4601 280.7286 13.15508114503358
ASNARO                  
1 40298U 14070A   25104.21481632  .00018455  00000+0  86814-3 0  9996
2 40298  97.3805 185.7589 0006937 184.6053 175.5119 15.19593650578881
YAOGAN-24               
1 40310U 14072A   25104.21498174  .00002183  00000+0  32182-3 0  9992
2 40310  98.0895 234.4979 0012626 197.4011 162.6767 14.76330050560451
CBERS 4                 
1 40336U 14079A   25104.16351863  .00000350  00000+0  13641-3 0  9997
2 40336  98.3578 170.0134 0001825 113.4539 246.6839 14.35523986542427
YAOGAN-26               
1 40362U 14088A   25104.16985188  .00020246  00000+0  67807-3 0  9998
2 40362  97.0672 115.0541 0007672 142.4218 217.7562 15.30937975573193
SMAP                    
1 40376U 15003A   25103.95114531  .00001215  00000+0  24390-3 0  9998
2 40376  98.1300 112.0956 0001623  85.4255 274.7133 14.63431620544840
KOMPSAT-3A              
1 40536U 15014A   25104.14404238  .00022102  00000+0  65631-3 0  9997
2 40536  97.6524  67.4836 0002404  39.1544 320.9872 15.34803543555667
SENTINEL-2A             
1 40697U 15028A   25104.19367903  .00000339  00000+0  14586-3 0  9993
2 40697  98.5624 180.1784 0001086  97.5901 262.5405 14.30819711512385
GAOFEN-8                
1 40701U 15030A   25104.18360428  .00024239  00000+0  82598-3 0  9999
2 40701  97.6845 272.2977 0011975 273.2569  86.7301 15.30310485545522
CARBONITE 1 (CBNT-1)    
1 40718U 15032D   25104.20105034  .00004205  00000+0  54213-3 0  9996
2 40718  97.6454 296.1346 0013601 259.8019 100.1661 14.81475250525782
YAOGAN-27               
1 40878U 15040A   25104.19147511 -.00000003  00000+0  10236-3 0  9996
2 40878 100.0876 104.9153 0008910 122.0845 238.1135 13.16046115462748
GAOFEN-9 01             
1 40894U 15047A   25104.21170162  .00002584  00000+0  33222-3 0  9997
2 40894  97.6834 153.2472 0029526 105.3289 255.1191 14.81681091516645
YAOGAN-28               
1 41026U 15064A   25104.17322877  .00015031  00000+0  63027-3 0  9998
2 41026  97.2488 249.5772 0012556 240.0326 119.9666 15.23521055525318
YAOGAN-29               
1 41038U 15069A   25104.21045265  .00001049  00000+0  13718-3 0  9990
2 41038  98.0396 126.3161 0001649  35.7951 324.3372 14.82554572507057
KENT RIDGE 1            
1 41167U 15077B   25103.65508148  .00007535  00000+0  31045-3 0  9992
2 41167  14.9793 211.5411 0008946 314.4830  45.4760 15.19473847515588
TELEOS-1                
1 41169U 15077D   25103.94943688  .00159774  00000+0  12574-2 0  9996
2 41169  14.9789  20.1139 0004744 306.2566  53.7324 15.69507187517448
GAOFEN-4                
1 41194U 15083A   25104.11017044 -.00000327  00000+0  00000+0 0  9997
2 41194   0.0545  18.3293 0001300  14.8451 314.7235  1.00271115 34198
JASON-3                 
1 41240U 16002A   25103.90289920 -.00000028  00000+0  14520-3 0  9995
2 41240  66.0416 306.9758 0007623 272.7473  87.2670 12.80930023432012
SENTINEL-3A             
1 41335U 16011A   25104.16190376  .00000324  00000+0  15172-3 0  9997
2 41335  98.6291 172.6557 0000999  91.0250 269.1044 14.26735551476888
ZIYUAN 3-2 (ZY 3-2)     
1 41556U 16033A   25104.21039172  .00012340  00000+0  55138-3 0  9995
2 41556  97.4214 182.0624 0006039 350.6440   9.4682 15.21464549492761
CARTOSAT-2C             
1 41599U 16040A   25104.15496550  .00008823  00000+0  42079-3 0  9991
2 41599  97.4278 165.2682 0013249 184.6365 175.4749 15.19246264488578
SKYSAT-C1               
1 41601U 16040C   25104.00516885  .00014363  00000+0  50077-3 0  9996
2 41601  97.0126 154.8963 0004701 104.0842 256.0923 15.29717457492152
LAPAN-A3                
1 41603U 16040E   25104.17622670  .00006585  00000+0  23340-3 0  9996
2 41603  97.1387 111.0113 0013136 108.0587 252.2087 15.29332346489164
BIROS                   
1 41604U 16040F   25103.52508152  .00043712  00000+0  57886-3 0  9998
2 41604  97.0920 132.4749 0006515  48.7163 311.4653 15.58155239490606
GAOFEN-3                
1 41727U 16049A   25104.18746714  .00000200  00000+0  73762-4 0  9991
2 41727  98.4057 113.3936 0001116  81.5856 278.5460 14.42219406456802
SKYSAT-C4               
1 41771U 16058B   25103.71245410  .00018858  00000+0  55389-3 0  9997
2 41771  96.9624 141.5827 0003021  66.8326 293.3236 15.35165632479312
SKYSAT-C5               
1 41772U 16058C   25103.63557943  .00018180  00000+0  51627-3 0  9995
2 41772  97.1073 156.1803 0006644 228.2574 131.8103 15.36219787477840
SKYSAT-C2               
1 41773U 16058D   25104.03580749  .00013225  00000+0  43660-3 0  9994
2 41773  97.0359 139.4554 0005442 139.3500 220.8150 15.31505596479158
SKYSAT-C3               
1 41774U 16058E   25103.58358817  .00018352  00000+0  51957-3 0  9997
2 41774  96.9601 149.6950 0002757  83.5050 276.6509 15.36325976479846
ALSAT 1B                
1 41785U 16059C   25104.18329605  .00000977  00000+0  16403-3 0  9991
2 41785  97.7935 126.2678 0009949 156.8659 203.2998 14.71758069457467
PATHFINDER 1            
1 41787U 16059E   25103.91109465  .00001602  00000+0  29348-3 0  9991
2 41787  97.8164 117.9745 0030038 132.4787 227.8963 14.66794558456764
SCATSAT 1               
1 41790U 16059H   25104.08914059  .00003042  00000+0  41852-3 0  9991
2 41790  98.1746 157.4114 0056275 187.2825 172.7573 14.77971572453485
GOKTURK 1A              
1 41875U 16073A   25104.14795327  .00001052  00000+0  21555-3 0  9990
2 41875  98.1199   0.1175 0001432  85.4373 274.6992 14.62735921446102
RESOURCESAT-2A          
1 41877U 16074A   25104.16250969  .00000370  00000+0  18788-3 0  9999
2 41877  98.6082 177.0061 0001579 140.5602 219.5691 14.21674599433353
CARTOSAT-2D             
1 41948U 17008A   25103.92353199  .00009219  00000+0  44120-3 0  9998
2 41948  97.4668 164.5847 0004431 290.5509  69.5250 15.19181705452405
SENTINEL-2B             
1 42063U 17013A   25104.18656378  .00000337  00000+0  14519-3 0  9998
2 42063  98.5655 180.1282 0001304  97.8036 262.3295 14.30817734423307
ZHUHAI-1 02 (CAS-4B)    
1 42759U 17034B   25103.98586419  .00077079  00000+0  10792-2 0  9993
2 42759  43.0088 297.3632 0019780 257.4891 102.3758 15.55631987433764
NUSAT-3 (MILANESAT)     
1 42760U 17034C   25103.92611239  .00169520  00000+0  13014-2 0  9991
2 42760  42.9967 266.7974 0023455 293.5445  66.2958 15.70414074434123
ZHUHAI-1 01 (CAS-4A)    
1 42761U 17034D   25103.99260819  .00080487  00000+0  10919-2 0  9998
2 42761  43.0123 294.9784 0021211 261.9404  97.9052 15.56428956433789
CARTOSAT-2E             
1 42767U 17036C   25104.13605432  .00008995  00000+0  43000-3 0  9999
2 42767  97.4836 164.3520 0002286   0.5556 359.5681 15.19233901433006
FORMOSAT-5              
1 42920U 17049A   25103.88560559  .00000548  00000+0  15027-3 0  9999
2 42920  98.2600 182.7714 0010061 323.7407  36.3105 14.50775224404427
SENTINEL-5P             
1 42969U 17064A   25103.87358266  .00000211  00000+0  12085-3 0  9996
2 42969  98.7544  45.0003 0001251  78.2109 281.9207 14.19508571388657
SKYSAT-C11              
1 42987U 17068A   25103.88608872  .00023478  00000+0  63355-3 0  9998
2 42987  97.3847 237.9487 0001448  62.1383 298.0008 15.37782602416896
SKYSAT-C10              
1 42988U 17068B   25104.13840747  .00018555  00000+0  61654-3 0  9997
2 42988  97.3979 235.0010 0005652 111.5502 248.6342 15.31231019416669
SKYSAT-C9               
1 42989U 17068C   25103.33035289  .00027605  00000+0  80650-3 0  9999
2 42989  97.3877 232.7347 0004783 216.0512 144.0409 15.35259690416752
SKYSAT-C8               
1 42990U 17068D   25104.11052811  .00019075  00000+0  63801-3 0  9999
2 42990  97.3984 233.8905 0001548  61.8510 298.2887 15.31025958416560
